CCSDS_OMM_VERS = 2.0
CREATION_DATE  = 
ORIGINATOR     = 

OBJECT_NAME    = STARLINK-36746
OBJECT_ID      = 2026-026N
CENTER_NAME    = EARTH
REF_FRAME      = TEME
TIME_SYSTEM    = UTC
MEAN_ELEMENT_THEORY = SGP/SGP4

EPOCH          = 2026-03-03T04:00:01.999584
MEAN_MOTION    = 15.56086293
ECCENTRICITY   = .0001931
INCLINATION    = 97.2841
RA_OF_ASC_NODE = 116.4416
ARG_OF_PERICENTER = 65.3678
MEAN_ANOMALY   = 108.0270

EPHEMERIS_TYPE = 0
CLASSIFICATION_TYPE = U
NORAD_CAT_ID   = 67733
ELEMENT_SET_NO = 999
REV_AT_EPOCH   = 426
BSTAR          = -.30635E-1
MEAN_MOTION_DOT = -.1887642E-1
MEAN_MOTION_DDOT = 0

CCSDS_OMM_VERS = 2.0
CREATION_DATE  = 
ORIGINATOR     = 

OBJECT_NAME    = STARLINK-36749
OBJECT_ID      = 2026-026P
CENTER_NAME    = EARTH
REF_FRAME      = TEME
TIME_SYSTEM    = UTC
MEAN_ELEMENT_THEORY = SGP/SGP4

EPOCH          = 2026-03-03T04:00:01.999584
MEAN_MOTION    = 15.69995587
ECCENTRICITY   = .0001608
INCLINATION    = 97.2837
RA_OF_ASC_NODE = 116.5313
ARG_OF_PERICENTER = 57.7032
MEAN_ANOMALY   = 333.5694

EPHEMERIS_TYPE = 0
CLASSIFICATION_TYPE = U
NORAD_CAT_ID   = 67734
ELEMENT_SET_NO = 999
REV_AT_EPOCH   = 426
BSTAR          = -.18471E-1
MEAN_MOTION_DOT = -.1958374E-1
MEAN_MOTION_DDOT = 0

CCSDS_OMM_VERS = 2.0
CREATION_DATE  = 
ORIGINATOR     = 

OBJECT_NAME    = STARLINK-36691
OBJECT_ID      = 2026-026Q
CENTER_NAME    = EARTH
REF_FRAME      = TEME
TIME_SYSTEM    = UTC
MEAN_ELEMENT_THEORY = SGP/SGP4

EPOCH          = 2026-03-03T04:00:01.999584
MEAN_MOTION    = 15.77101316
ECCENTRICITY   = .000188
INCLINATION    = 97.2848
RA_OF_ASC_NODE = 116.5537
ARG_OF_PERICENTER = 64.1990
MEAN_ANOMALY   = 30.7813

EPHEMERIS_TYPE = 0
CLASSIFICATION_TYPE = U
NORAD_CAT_ID   = 67735
ELEMENT_SET_NO = 999
REV_AT_EPOCH   = 440
BSTAR          = -.1367E-1
MEAN_MOTION_DOT = -.1929143E-1
MEAN_MOTION_DDOT = 0

CCSDS_OMM_VERS = 2.0
CREATION_DATE  = 
ORIGINATOR     = 

OBJECT_NAME    = STARLINK-36317
OBJECT_ID      = 2026-026R
CENTER_NAME    = EARTH
REF_FRAME      = TEME
TIME_SYSTEM    = UTC
MEAN_ELEMENT_THEORY = SGP/SGP4

EPOCH          = 2026-03-03T04:00:01.999584
MEAN_MOTION    = 15.76845870
ECCENTRICITY   = .0001883
INCLINATION    = 97.2847
RA_OF_ASC_NODE = 116.5490
ARG_OF_PERICENTER = 59.9282
MEAN_ANOMALY   = 24.7327

EPHEMERIS_TYPE = 0
CLASSIFICATION_TYPE = U
NORAD_CAT_ID   = 67736
ELEMENT_SET_NO = 999
REV_AT_EPOCH   = 426
BSTAR          = -.13805E-1
MEAN_MOTION_DOT = -.1926553E-1
MEAN_MOTION_DDOT = 0

CCSDS_OMM_VERS = 2.0
CREATION_DATE  = 
ORIGINATOR     = 

OBJECT_NAME    = STARLINK-36330
OBJECT_ID      = 2026-026S
CENTER_NAME    = EARTH
REF_FRAME      = TEME
TIME_SYSTEM    = UTC
MEAN_ELEMENT_THEORY = SGP/SGP4

EPOCH          = 2026-03-03T04:00:01.999584
MEAN_MOTION    = 15.77196496
ECCENTRICITY   = .0001771
INCLINATION    = 97.2850
RA_OF_ASC_NODE = 116.5557
ARG_OF_PERICENTER = 66.1060
MEAN_ANOMALY   = 35.4193

EPHEMERIS_TYPE = 0
CLASSIFICATION_TYPE = U
NORAD_CAT_ID   = 67737
ELEMENT_SET_NO = 999
REV_AT_EPOCH   = 426
BSTAR          = -.13561E-1
MEAN_MOTION_DOT = -.1922746E-1
MEAN_MOTION_DDOT = 0

CCSDS_OMM_VERS = 2.0
CREATION_DATE  = 
ORIGINATOR     = 

OBJECT_NAME    = STARLINK-36327
OBJECT_ID      = 2026-026T
CENTER_NAME    = EARTH
REF_FRAME      = TEME
TIME_SYSTEM    = UTC
MEAN_ELEMENT_THEORY = SGP/SGP4

EPOCH          = 2026-03-03T04:00:01.999584
MEAN_MOTION    = 15.77489435
ECCENTRICITY   = .0001837
INCLINATION    = 97.2850
RA_OF_ASC_NODE = 116.5595
ARG_OF_PERICENTER = 65.1958
MEAN_ANOMALY   = 45.1883

EPHEMERIS_TYPE = 0
CLASSIFICATION_TYPE = U
NORAD_CAT_ID   = 67738
ELEMENT_SET_NO = 999
REV_AT_EPOCH   = 426
BSTAR          = -.13417E-1
MEAN_MOTION_DOT = -.1926885E-1
MEAN_MOTION_DDOT = 0

CCSDS_OMM_VERS = 2.0
CREATION_DATE  = 
ORIGINATOR     = 

OBJECT_NAME    = STARLINK-36329
OBJECT_ID      = 2026-026U
CENTER_NAME    = EARTH
REF_FRAME      = TEME
TIME_SYSTEM    = UTC
MEAN_ELEMENT_THEORY = SGP/SGP4

EPOCH          = 2026-03-03T03:19:13.649088
MEAN_MOTION    = 15.79069824
ECCENTRICITY   = .0001319
INCLINATION    = 97.2875
RA_OF_ASC_NODE = 116.5452
ARG_OF_PERICENTER = 38.2659
MEAN_ANOMALY   = 321.8702

EPHEMERIS_TYPE = 0
CLASSIFICATION_TYPE = U
NORAD_CAT_ID   = 67739
ELEMENT_SET_NO = 999
REV_AT_EPOCH   = 310
BSTAR          = -.52667E-2
MEAN_MOTION_DOT = -.846192E-2
MEAN_MOTION_DDOT = 0

CCSDS_OMM_VERS = 2.0
CREATION_DATE  = 
ORIGINATOR     = 

OBJECT_NAME    = STARLINK-36737
OBJECT_ID      = 2026-026V
CENTER_NAME    = EARTH
REF_FRAME      = TEME
TIME_SYSTEM    = UTC
MEAN_ELEMENT_THEORY = SGP/SGP4

EPOCH          = 2026-03-03T04:00:01.999584
MEAN_MOTION    = 15.77640710
ECCENTRICITY   = .000184
INCLINATION    = 97.2850
RA_OF_ASC_NODE = 116.5619
ARG_OF_PERICENTER = 64.2849
MEAN_ANOMALY   = 55.2875

EPHEMERIS_TYPE = 0
CLASSIFICATION_TYPE = U
NORAD_CAT_ID   = 67740
ELEMENT_SET_NO = 999
REV_AT_EPOCH   = 426
BSTAR          = -.13312E-1
MEAN_MOTION_DOT = -.1925078E-1
MEAN_MOTION_DDOT = 0

CCSDS_OMM_VERS = 2.0
CREATION_DATE  = 
ORIGINATOR     = 

OBJECT_NAME    = STARLINK-36740
OBJECT_ID      = 2026-026W
CENTER_NAME    = EARTH
REF_FRAME      = TEME
TIME_SYSTEM    = UTC
MEAN_ELEMENT_THEORY = SGP/SGP4

EPOCH          = 2026-03-03T04:00:01.999584
MEAN_MOTION    = 15.73383786
ECCENTRICITY   = .0001853
INCLINATION    = 97.2853
RA_OF_ASC_NODE = 116.5683
ARG_OF_PERICENTER = 67.5231
MEAN_ANOMALY   = 61.6104

EPHEMERIS_TYPE = 0
CLASSIFICATION_TYPE = U
NORAD_CAT_ID   = 67741
ELEMENT_SET_NO = 999
REV_AT_EPOCH   = 426
BSTAR          = -.16067E-1
MEAN_MOTION_DOT = -.1926507E-1
MEAN_MOTION_DDOT = 0

CCSDS_OMM_VERS = 2.0
CREATION_DATE  = 
ORIGINATOR     = 

OBJECT_NAME    = STARLINK-36693
OBJECT_ID      = 2026-026X
CENTER_NAME    = EARTH
REF_FRAME      = TEME
TIME_SYSTEM    = UTC
MEAN_ELEMENT_THEORY = SGP/SGP4

EPOCH          = 2026-03-03T04:00:01.999584
MEAN_MOTION    = 15.74049384
ECCENTRICITY   = .0001827
INCLINATION    = 97.2848
RA_OF_ASC_NODE = 116.5616
ARG_OF_PERICENTER = 65.5383
MEAN_ANOMALY   = 45.3410

EPHEMERIS_TYPE = 0
CLASSIFICATION_TYPE = U
NORAD_CAT_ID   = 67742
ELEMENT_SET_NO = 999
REV_AT_EPOCH   = 440
BSTAR          = -.15596E-1
MEAN_MOTION_DOT = -.1924884E-1
MEAN_MOTION_DDOT = 0

CCSDS_OMM_VERS = 2.0
CREATION_DATE  = 
ORIGINATOR     = 

OBJECT_NAME    = STARLINK-36717
OBJECT_ID      = 2026-026Y
CENTER_NAME    = EARTH
REF_FRAME      = TEME
TIME_SYSTEM    = UTC
MEAN_ELEMENT_THEORY = SGP/SGP4

EPOCH          = 2026-03-03T04:00:01.999584
MEAN_MOTION    = 15.76162166
ECCENTRICITY   = .0001852
INCLINATION    = 97.2851
RA_OF_ASC_NODE = 116.5696
ARG_OF_PERICENTER = 63.5164
MEAN_ANOMALY   = 73.3768

EPHEMERIS_TYPE = 0
CLASSIFICATION_TYPE = U
NORAD_CAT_ID   = 67743
ELEMENT_SET_NO = 999
REV_AT_EPOCH   = 440
BSTAR          = -.14276E-1
MEAN_MOTION_DOT = -.1931798E-1
MEAN_MOTION_DDOT = 0

CCSDS_OMM_VERS = 2.0
CREATION_DATE  = 
ORIGINATOR     = 

OBJECT_NAME    = STARLINK-36692
OBJECT_ID      = 2026-026Z
CENTER_NAME    = EARTH
REF_FRAME      = TEME
TIME_SYSTEM    = UTC
MEAN_ELEMENT_THEORY = SGP/SGP4

EPOCH          = 2026-03-03T04:00:01.999584
MEAN_MOTION    = 15.74916651
ECCENTRICITY   = .0001897
INCLINATION    = 97.2849
RA_OF_ASC_NODE = 116.5656
ARG_OF_PERICENTER = 62.4424
MEAN_ANOMALY   = 61.5046

EPHEMERIS_TYPE = 0
CLASSIFICATION_TYPE = U
NORAD_CAT_ID   = 67744
ELEMENT_SET_NO = 999
REV_AT_EPOCH   = 426
BSTAR          = -.15035E-1
MEAN_MOTION_DOT = -.1926812E-1
MEAN_MOTION_DDOT = 0

