STARLINK-36746          
1 67733U 26026N   26062.16668981 -.01887642  00000+0 -30635-1 0  9998
2 67733  97.2841 116.4416 0001931  65.3678 108.0270 15.56086293  4266
STARLINK-36749          
1 67734U 26026P   26062.16668981 -.01958374  00000+0 -18471-1 0  9994
2 67734  97.2837 116.5313 0001608  57.7032 333.5694 15.69995587  4263
STARLINK-36691          
1 67735U 26026Q   26062.16668981 -.01929143  00000+0 -13670-1 0  9993
2 67735  97.2848 116.5537 0001880  64.1990  30.7813 15.77101316  4404
STARLINK-36317          
1 67736U 26026R   26062.16668981 -.01926553  00000+0 -13805-1 0  9996
2 67736  97.2847 116.5490 0001883  59.9282  24.7327 15.76845870  4267
STARLINK-36330          
1 67737U 26026S   26062.16668981 -.01922746  00000+0 -13561-1 0  9996
2 67737  97.2850 116.5557 0001771  66.1060  35.4193 15.77196496  4260
STARLINK-36327          
1 67738U 26026T   26062.16668981 -.01926885  00000+0 -13417-1 0  9995
2 67738  97.2850 116.5595 0001837  65.1958  45.1883 15.77489435  4263
STARLINK-36329          
1 67739U 26026U   26062.13835242 -.00846192  00000+0 -52667-2 0  9991
2 67739  97.2875 116.5452 0001319  38.2659 321.8702 15.79069824  3101
STARLINK-36737          
1 67740U 26026V   26062.16668981 -.01925078  00000+0 -13312-1 0  9995
2 67740  97.2850 116.5619 0001840  64.2849  55.2875 15.77640710  4264
STARLINK-36740          
1 67741U 26026W   26062.16668981 -.01926507  00000+0 -16067-1 0  9994
2 67741  97.2853 116.5683 0001853  67.5231  61.6104 15.73383786  4263
STARLINK-36693          
1 67742U 26026X   26062.16668981 -.01924884  00000+0 -15596-1 0  9997
2 67742  97.2848 116.5616 0001827  65.5383  45.3410 15.74049384  4400
STARLINK-36717          
1 67743U 26026Y   26062.16668981 -.01931798  00000+0 -14276-1 0  9994
2 67743  97.2851 116.5696 0001852  63.5164  73.3768 15.76162166  4409
STARLINK-36692          
1 67744U 26026Z   26062.16668981 -.01926812  00000+0 -15035-1 0  9990
2 67744  97.2849 116.5656 0001897  62.4424  61.5046 15.74916651  4265
